[{"OBJECT_NAME":"STARLINK-34758","OBJECT_ID":"2025-158P","EPOCH":"2026-03-09T14:30:35.677440","MEAN_MOTION":15.05652349,"ECCENTRICITY":0.0002855,"INCLINATION":97.6014,"RA_OF_ASC_NODE":294.014,"ARG_OF_PERICENTER":87.6603,"MEAN_ANOMALY":272.495,"EPHEMERIS_TYPE":0,"CLASSIFICATION_TYPE":"U","NORAD_CAT_ID":64945,"ELEMENT_SET_NO":999,"REV_AT_EPOCH":3534,"BSTAR":0.00039459,"MEAN_MOTION_DOT":5.638e-5,"MEAN_MOTION_DDOT":0},{"OBJECT_NAME":"CZ-6A DEB","OBJECT_ID":"2022-151AAS","EPOCH":"2026-03-09T03:45:24.122016","MEAN_MOTION":15.06999256,"ECCENTRICITY":0.00393195,"INCLINATION":98.6364,"RA_OF_ASC_NODE":147.7741,"ARG_OF_PERICENTER":181.1546,"MEAN_ANOMALY":178.9594,"EPHEMERIS_TYPE":0,"CLASSIFICATION_TYPE":"U","NORAD_CAT_ID":55894,"ELEMENT_SET_NO":999,"REV_AT_EPOCH":17150,"BSTAR":0.0072812999,"MEAN_MOTION_DOT":0.00112507,"MEAN_MOTION_DDOT":0}]
